TRANSIT 16 [?]          
1 02807U 67048A   19067.61418670  .00000043  00000-0  50337-4 0  9997
2 02807  89.6160  80.6580 0022065  62.0521  56.4228 13.50200799549356
TRANSIT 17 [?]          
1 02965U 67092A   19067.83327431  .00000048  00000-0  54185-4 0  9999
2 02965  89.2700 212.3636 0047265 206.0654 310.2256 13.52918387537258
TRANSIT 18 [?]          
1 03133U 68012A   19068.71825017  .00000063  00000-0  79518-4 0  9995
2 03133  89.9687 273.0777 0077455 122.9005 282.5153 13.51036653512141
NNSS 19 [?]             
1 04507U 70067A   19067.55269505  .00000059  00000-0  71852-4 0  9997
2 04507  89.8524 252.9175 0170214 248.7204 109.5699 13.50708069388970
NNSS O-20 [?]           
1 06909U 73081A   19068.56405114  .00000029  00000-0  21228-4 0  9993
2 06909  89.8158 300.8134 0155173 278.2818  80.0775 13.70511560465485
TRANSAT [?]             
1 10457U 77106A   19068.16228867  .00000050  00000-0  64400-4 0  9995
2 10457  89.7487 156.6458 0027613 114.7054 306.8434 13.48601959 34649
NOVA I [?]              
1 12458U 81044A   19067.66083323  .00000007  00000-0 -55531-5 0  9993
2 12458  89.9306 118.0827 0016353  78.7611  84.1111 13.22994226825092
NOVA 3 [?]              
1 15362U 84110A   19067.90887642  .00000037  00000-0  68131-4 0  9991
2 15362  90.0578  58.0098 0030261 300.8832  85.8890 13.22765046660325
OSCAR 30 [?]            
1 15935U 85066A   19068.53245370  .00000013  00000-0  90674-5 0  9996
2 15935  90.1439  58.8478 0168311 210.8339 268.7562 13.35663510634829
OSCAR 24 [?]            
1 15936U 85066B   19068.56588139  .00000017  00000-0  17142-4 0  9995
2 15936  90.1335  51.9055 0168592 215.4977 283.6796 13.35533482636911
POLAR BEAR [?]          
1 17070U 86088A   19068.54966498  .00000044  00000-0  34007-4 0  9996
2 17070  89.5242 295.9020 0039143  10.5396  50.6022 13.74773475620638
OSCAR 27 [?]            
1 18361U 87080A   19068.20421385  .00000079  00000-0  11484-3 0  9998
2 18361  90.3258 355.9840 0106506  97.1824 264.1446 13.44470216543822
OSCAR 29 [?]            
1 18362U 87080B   19068.42412139  .00000063  00000-0  89115-4 0  9990
2 18362  90.3264 356.2360 0107930 114.1487  13.5237 13.44063304543491
OSCAR 23 [?]            
1 19070U 88033A   19068.21347302  .00000015  00000-0  14586-4 0  9999
2 19070  90.3658 295.8395 0189509 208.6754 268.9017 13.27443670495014
OSCAR 32 [?]            
1 19071U 88033B   19067.59635503 -.00000002  00000-0 -20311-4 0  9994
2 19071  90.3660 295.8897 0187819 199.3002 189.2295 13.27621235494892
NOVA 11 [?]             
1 19223U 88052A   19067.60846950  .00000023  00000-0  33346-4 0  9999
2 19223  89.9580  84.6985 0030155 346.3692 127.1793 13.22683921482792
OSCAR 25 [?]            
1 19419U 88074A   19067.79933461  .00000062  00000-0  89680-4 0  9999
2 19419  89.9947  18.1977 0098502  92.9080 295.3681 13.42206075494918
OSCAR 31 [?]            
1 19420U 88074B   19067.82367934  .00000036  00000-0  44597-4 0  9990
2 19420  89.9955  18.2604 0096636  87.1445 291.9657 13.42219956495024
